[{"OBJECT_NAME":"STARLINK-32517","OBJECT_ID":"2024-210X","EPOCH":"2025-10-13T07:06:10.437696","MEAN_MOTION":15.27596222,"ECCENTRICITY":0.00017755,"INCLINATION":43.0004,"RA_OF_ASC_NODE":292.6012,"ARG_OF_PERICENTER":272.1599,"MEAN_ANOMALY":87.9049,"EPHEMERIS_TYPE":0,"CLASSIFICATION_TYPE":"U","NORAD_CAT_ID":61980,"ELEMENT_SET_NO":999,"REV_AT_EPOCH":5228,"BSTAR":0.0014427734,"MEAN_MOTION_DOT":0.00039674,"MEAN_MOTION_DDOT":0},{"OBJECT_NAME":"STARLINK-32522","OBJECT_ID":"2024-210Y","EPOCH":"2025-10-13T07:52:15.014784","MEAN_MOTION":15.27603373,"ECCENTRICITY":8.336e-5,"INCLINATION":43.0017,"RA_OF_ASC_NODE":291.9778,"ARG_OF_PERICENTER":210.071,"MEAN_ANOMALY":150.0094,"EPHEMERIS_TYPE":0,"CLASSIFICATION_TYPE":"U","NORAD_CAT_ID":61981,"ELEMENT_SET_NO":999,"REV_AT_EPOCH":5234,"BSTAR":0.0025142991,"MEAN_MOTION_DOT":0.00069631,"MEAN_MOTION_DDOT":0},{"OBJECT_NAME":"STARLINK-32560","OBJECT_ID":"2024-210Z","EPOCH":"2025-10-12T17:24:27.223776","MEAN_MOTION":15.27590792,"ECCENTRICITY":7.232e-5,"INCLINATION":42.9995,"RA_OF_ASC_NODE":295.1933,"ARG_OF_PERICENTER":264.2909,"MEAN_ANOMALY":95.786,"EPHEMERIS_TYPE":0,"CLASSIFICATION_TYPE":"U","NORAD_CAT_ID":61982,"ELEMENT_SET_NO":999,"REV_AT_EPOCH":5225,"BSTAR":0.0012228283,"MEAN_MOTION_DOT":0.00033552,"MEAN_MOTION_DDOT":0},{"OBJECT_NAME":"STARLINK-11433 [DTC]","OBJECT_ID":"2024-213A","EPOCH":"2025-10-12T15:12:50.299200","MEAN_MOTION":15.69758345,"ECCENTRICITY":0.00012624,"INCLINATION":53.1557,"RA_OF_ASC_NODE":50.9545,"ARG_OF_PERICENTER":35.3051,"MEAN_ANOMALY":324.8051,"EPHEMERIS_TYPE":0,"CLASSIFICATION_TYPE":"U","NORAD_CAT_ID":62008,"ELEMENT_SET_NO":999,"REV_AT_EPOCH":5166,"BSTAR":0.0014295232,"MEAN_MOTION_DOT":0.00176687,"MEAN_MOTION_DDOT":0},{"OBJECT_NAME":"STARLINK-11262 [DTC]","OBJECT_ID":"2024-213B","EPOCH":"2025-10-13T01:19:27.315264","MEAN_MOTION":15.6980153,"ECCENTRICITY":4.546e-5,"INCLINATION":53.1595,"RA_OF_ASC_NODE":49.3351,"ARG_OF_PERICENTER":67.8642,"MEAN_ANOMALY":292.2424,"EPHEMERIS_TYPE":0,"CLASSIFICATION_TYPE":"U","NORAD_CAT_ID":62009,"ELEMENT_SET_NO":999,"REV_AT_EPOCH":5172,"BSTAR":0.0028636589,"MEAN_MOTION_DOT":0.00363371,"MEAN_MOTION_DDOT":0},{"OBJECT_NAME":"STARLINK-11326 [DTC]","OBJECT_ID":"2024-213C","EPOCH":"2025-10-12T18:44:27.739968","MEAN_MOTION":15.69768826,"ECCENTRICITY":8.213e-5,"INCLINATION":53.1558,"RA_OF_ASC_NODE":50.4568,"ARG_OF_PERICENTER":70.2373,"MEAN_ANOMALY":289.8734,"EPHEMERIS_TYPE":0,"CLASSIFICATION_TYPE":"U","NORAD_CAT_ID":62010,"ELEMENT_SET_NO":999,"REV_AT_EPOCH":5168,"BSTAR":0.0012875108,"MEAN_MOTION_DOT":0.00158799,"MEAN_MOTION_DDOT":0},{"OBJECT_NAME":"STARLINK-11330 [DTC]","OBJECT_ID":"2024-213D","EPOCH":"2025-10-13T07:19:09.684480","MEAN_MOTION":15.69754003,"ECCENTRICITY":9.904e-5,"INCLINATION":53.1558,"RA_OF_ASC_NODE":48.0443,"ARG_OF_PERICENTER":97.4156,"MEAN_ANOMALY":262.6975,"EPHEMERIS_TYPE":0,"CLASSIFICATION_TYPE":"U","NORAD_CAT_ID":62011,"ELEMENT_SET_NO":999,"REV_AT_EPOCH":5176,"BSTAR":0.0028289166,"MEAN_MOTION_DOT":0.00357998,"MEAN_MOTION_DDOT":0},{"OBJECT_NAME":"STARLINK-11363 [DTC]","OBJECT_ID":"2024-213E","EPOCH":"2025-10-12T18:30:19.761984","MEAN_MOTION":15.69816841,"ECCENTRICITY":0.00010128,"INCLINATION":53.1562,"RA_OF_ASC_NODE":50.3936,"ARG_OF_PERICENTER":320.5147,"MEAN_ANOMALY":39.5797,"EPHEMERIS_TYPE":0,"CLASSIFICATION_TYPE":"U","NORAD_CAT_ID":62012,"ELEMENT_SET_NO":999,"REV_AT_EPOCH":5168,"BSTAR":0.0021056273,"MEAN_MOTION_DOT":0.00263956,"MEAN_MOTION_DDOT":0},{"OBJECT_NAME":"STARLINK-11377 [DTC]","OBJECT_ID":"2024-213F","EPOCH":"2025-10-12T15:19:54.673536","MEAN_MOTION":15.69715276,"ECCENTRICITY":8.56e-5,"INCLINATION":53.1561,"RA_OF_ASC_NODE":50.9924,"ARG_OF_PERICENTER":96.7107,"MEAN_ANOMALY":263.4008,"EPHEMERIS_TYPE":0,"CLASSIFICATION_TYPE":"U","NORAD_CAT_ID":62013,"ELEMENT_SET_NO":999,"REV_AT_EPOCH":5166,"BSTAR":0.00084668663,"MEAN_MOTION_DOT":0.00103294,"MEAN_MOTION_DDOT":0},{"OBJECT_NAME":"STARLINK-11385 [DTC]","OBJECT_ID":"2024-213G","EPOCH":"2025-10-13T01:05:20.283360","MEAN_MOTION":15.69774306,"ECCENTRICITY":0.00025049,"INCLINATION":53.155,"RA_OF_ASC_NODE":49.2681,"ARG_OF_PERICENTER":68.769,"MEAN_ANOMALY":291.3596,"EPHEMERIS_TYPE":0,"CLASSIFICATION_TYPE":"U","NORAD_CAT_ID":62014,"ELEMENT_SET_NO":999,"REV_AT_EPOCH":5172,"BSTAR":0.0024097722,"MEAN_MOTION_DOT":0.00303079,"MEAN_MOTION_DDOT":0},{"OBJECT_NAME":"STARLINK-11396 [DTC]","OBJECT_ID":"2024-213H","EPOCH":"2025-10-13T01:47:34.195776","MEAN_MOTION":15.69807104,"ECCENTRICITY":0.0001516,"INCLINATION":53.1561,"RA_OF_ASC_NODE":48.7235,"ARG_OF_PERICENTER":82.8607,"MEAN_ANOMALY":277.2583,"EPHEMERIS_TYPE":0,"CLASSIFICATION_TYPE":"U","NORAD_CAT_ID":62015,"ELEMENT_SET_NO":999,"REV_AT_EPOCH":5173,"BSTAR":0.0025938889,"MEAN_MOTION_DOT":0.00327705,"MEAN_MOTION_DDOT":0},{"OBJECT_NAME":"STARLINK-11393 [DTC]","OBJECT_ID":"2024-213J","EPOCH":"2025-10-13T01:40:30.301824","MEAN_MOTION":15.69824609,"ECCENTRICITY":0.00014119,"INCLINATION":53.1564,"RA_OF_ASC_NODE":48.6932,"ARG_OF_PERICENTER":76.4025,"MEAN_ANOMALY":283.715,"EPHEMERIS_TYPE":0,"CLASSIFICATION_TYPE":"U","NORAD_CAT_ID":62016,"ELEMENT_SET_NO":999,"REV_AT_EPOCH":5173,"BSTAR":0.0029336443,"MEAN_MOTION_DOT":0.00373038,"MEAN_MOTION_DDOT":0},{"OBJECT_NAME":"STARLINK-11343 [DTC]","OBJECT_ID":"2024-213K","EPOCH":"2025-10-12T18:51:31.904352","MEAN_MOTION":15.69841062,"ECCENTRICITY":0.00012702,"INCLINATION":53.1558,"RA_OF_ASC_NODE":50.4917,"ARG_OF_PERICENTER":23.735,"MEAN_ANOMALY":336.3727,"EPHEMERIS_TYPE":0,"CLASSIFICATION_TYPE":"U","NORAD_CAT_ID":62017,"ELEMENT_SET_NO":999,"REV_AT_EPOCH":5168,"BSTAR":0.0026954432,"MEAN_MOTION_DOT":0.00341621,"MEAN_MOTION_DDOT":0},{"OBJECT_NAME":"STARLINK-11411 [DTC]","OBJECT_ID":"2024-213L","EPOCH":"2025-10-12T18:37:23.543616","MEAN_MOTION":15.69835018,"ECCENTRICITY":0.0001228,"INCLINATION":53.1569,"RA_OF_ASC_NODE":50.4281,"ARG_OF_PERICENTER":322.4771,"MEAN_ANOMALY":37.6161,"EPHEMERIS_TYPE":0,"CLASSIFICATION_TYPE":"U","NORAD_CAT_ID":62018,"ELEMENT_SET_NO":999,"REV_AT_EPOCH":5168,"BSTAR":0.0018654786,"MEAN_MOTION_DOT":0.0023308,"MEAN_MOTION_DDOT":0},{"OBJECT_NAME":"STARLINK-11404 [DTC]","OBJECT_ID":"2024-213M","EPOCH":"2025-10-13T01:26:32.114688","MEAN_MOTION":15.69962014,"ECCENTRICITY":0.00026599,"INCLINATION":53.1555,"RA_OF_ASC_NODE":49.3627,"ARG_OF_PERICENTER":61.9458,"MEAN_ANOMALY":298.1829,"EPHEMERIS_TYPE":0,"CLASSIFICATION_TYPE":"U","NORAD_CAT_ID":62019,"ELEMENT_SET_NO":999,"REV_AT_EPOCH":5172,"BSTAR":0.0033137861,"MEAN_MOTION_DOT":0.00426634,"MEAN_MOTION_DDOT":0},{"OBJECT_NAME":"STARLINK-11378 [DTC]","OBJECT_ID":"2024-213N","EPOCH":"2025-10-12T19:26:42.070560","MEAN_MOTION":15.69785511,"ECCENTRICITY":9.28e-5,"INCLINATION":53.1565,"RA_OF_ASC_NODE":49.9152,"ARG_OF_PERICENTER":88.8266,"MEAN_ANOMALY":271.2858,"EPHEMERIS_TYPE":0,"CLASSIFICATION_TYPE":"U","NORAD_CAT_ID":62020,"ELEMENT_SET_NO":999,"REV_AT_EPOCH":5169,"BSTAR":0.0023867043,"MEAN_MOTION_DOT":0.00300209,"MEAN_MOTION_DDOT":0},{"OBJECT_NAME":"STARLINK-32520","OBJECT_ID":"2024-213P","EPOCH":"2025-10-13T07:05:45.353184","MEAN_MOTION":15.30241996,"ECCENTRICITY":0.00013659,"INCLINATION":53.1587,"RA_OF_ASC_NODE":133.0728,"ARG_OF_PERICENTER":71.6415,"MEAN_ANOMALY":288.4734,"EPHEMERIS_TYPE":0,"CLASSIFICATION_TYPE":"U","NORAD_CAT_ID":62021,"ELEMENT_SET_NO":999,"REV_AT_EPOCH":5058,"BSTAR":0.001071293,"MEAN_MOTION_DOT":0.00031546,"MEAN_MOTION_DDOT":0},{"OBJECT_NAME":"STARLINK-32539","OBJECT_ID":"2024-213Q","EPOCH":"2025-10-13T05:49:05.479392","MEAN_MOTION":15.30265411,"ECCENTRICITY":0.00017732,"INCLINATION":53.1572,"RA_OF_ASC_NODE":120.489,"ARG_OF_PERICENTER":71.5162,"MEAN_ANOMALY":288.6032,"EPHEMERIS_TYPE":0,"CLASSIFICATION_TYPE":"U","NORAD_CAT_ID":62022,"ELEMENT_SET_NO":999,"REV_AT_EPOCH":5075,"BSTAR":0.0017258513,"MEAN_MOTION_DOT":0.00051213,"MEAN_MOTION_DDOT":0},{"OBJECT_NAME":"STARLINK-32334","OBJECT_ID":"2024-213R","EPOCH":"2025-10-13T07:19:15.548448","MEAN_MOTION":15.30201705,"ECCENTRICITY":0.00014568,"INCLINATION":53.1594,"RA_OF_ASC_NODE":132.4185,"ARG_OF_PERICENTER":81.5188,"MEAN_ANOMALY":278.5978,"EPHEMERIS_TYPE":0,"CLASSIFICATION_TYPE":"U","NORAD_CAT_ID":62023,"ELEMENT_SET_NO":999,"REV_AT_EPOCH":5059,"BSTAR":0.0016670991,"MEAN_MOTION_DOT":0.00049347,"MEAN_MOTION_DDOT":0},{"OBJECT_NAME":"STARLINK-32504","OBJECT_ID":"2024-213S","EPOCH":"2025-10-13T01:27:21.011040","MEAN_MOTION":15.30182135,"ECCENTRICITY":0.00013037,"INCLINATION":53.1572,"RA_OF_ASC_NODE":133.7429,"ARG_OF_PERICENTER":94.9107,"MEAN_ANOMALY":265.2042,"EPHEMERIS_TYPE":0,"CLASSIFICATION_TYPE":"U","NORAD_CAT_ID":62024,"ELEMENT_SET_NO":999,"REV_AT_EPOCH":5055,"BSTAR":0.001195394,"MEAN_MOTION_DOT":0.00035193,"MEAN_MOTION_DDOT":0},{"OBJECT_NAME":"STARLINK-32493","OBJECT_ID":"2024-213T","EPOCH":"2025-10-13T06:56:36.225888","MEAN_MOTION":15.3020927,"ECCENTRICITY":0.00012573,"INCLINATION":53.159,"RA_OF_ASC_NODE":133.0353,"ARG_OF_PERICENTER":91.3369,"MEAN_ANOMALY":268.7776,"EPHEMERIS_TYPE":0,"CLASSIFICATION_TYPE":"U","NORAD_CAT_ID":62025,"ELEMENT_SET_NO":999,"REV_AT_EPOCH":5058,"BSTAR":0.00051087359,"MEAN_MOTION_DOT":0.00014806,"MEAN_MOTION_DDOT":0},{"OBJECT_NAME":"STARLINK-32561","OBJECT_ID":"2024-213U","EPOCH":"2025-10-13T01:36:28.090656","MEAN_MOTION":15.30235641,"ECCENTRICITY":4.888e-5,"INCLINATION":53.1572,"RA_OF_ASC_NODE":133.7784,"ARG_OF_PERICENTER":76.4183,"MEAN_ANOMALY":283.6872,"EPHEMERIS_TYPE":0,"CLASSIFICATION_TYPE":"U","NORAD_CAT_ID":62026,"ELEMENT_SET_NO":999,"REV_AT_EPOCH":5055,"BSTAR":0.0014890511,"MEAN_MOTION_DOT":0.00044053,"MEAN_MOTION_DDOT":0},{"OBJECT_NAME":"STARLINK-32512","OBJECT_ID":"2024-213V","EPOCH":"2025-10-13T07:29:54.461760","MEAN_MOTION":15.30182771,"ECCENTRICITY":0.00027961,"INCLINATION":53.1585,"RA_OF_ASC_NODE":132.4649,"ARG_OF_PERICENTER":89.1913,"MEAN_ANOMALY":270.9409,"EPHEMERIS_TYPE":0,"CLASSIFICATION_TYPE":"U","NORAD_CAT_ID":62027,"ELEMENT_SET_NO":999,"REV_AT_EPOCH":5059,"BSTAR":0.00064429604,"MEAN_MOTION_DOT":0.00018762,"MEAN_MOTION_DDOT":0}]
